{"type":"FeatureCollection", "features": [
{"type":"Feature","geometry":{"type":"MultiPolygon","coordinates":[[[[5.964,46.19691],[5.96446,46.19805],[5.97461,46.21497],[5.99278,46.21522],[6.01644,46.23198],[6.04174,46.23353],[6.06041,46.24501],[6.08806,46.24713],[6.10145,46.23765],[6.12447,46.25125],[6.11543,46.26594],[6.10239,46.28494],[6.12179,46.29911],[6.11921,46.30776],[6.12436,46.31728],[6.13788,46.33327],[6.16993,46.36608],[6.09763,46.40904],[6.06386,46.41639],[6.0863,46.44346],[6.07279,46.46544],[6.0969,46.4813],[6.12077,46.51697],[6.15666,46.5453],[6.13796,46.5578],[6.11047,46.57644],[6.12652,46.58992],[6.1612,46.60997],[6.17508,46.614],[6.21271,46.64065],[6.25726,46.66979],[6.2705,46.68318],[6.29823,46.69481],[6.34123,46.71012],[6.3573,46.71973],[6.36016,46.72309],[6.38393,46.73103],[6.3952,46.74847],[6.43819,46.76178],[6.45842,46.78878],[6.4415,46.79785],[6.43104,46.81236],[6.44083,46.81582],[6.44316,46.83271],[6.46003,46.8513],[6.4614,46.86231],[6.46462,46.89036],[6.4477,46.91124],[6.43269,46.92868],[6.44481,46.93338],[6.47271,46.95692],[6.49648,46.97415],[6.50481,46.96569],[6.57188,46.98204],[6.5843,46.98754],[6.59619,46.99239],[6.61797,46.99165],[6.63358,46.99815],[6.6591,47.02728],[6.67792,47.03549],[6.69654,47.03731],[6.71151,47.04804],[6.70008,47.06969],[6.71508,47.08841],[6.7447,47.09301],[6.74406,47.10959],[6.76745,47.12107],[6.80605,47.13071],[6.81731,47.13773],[6.82638,47.14421],[6.85827,47.16434],[6.8613,47.17953],[6.89337,47.20782],[6.92113,47.22057],[6.95555,47.24303],[6.94754,47.25028],[6.95201,47.2699],[6.94547,47.2893],[6.94777,47.29098],[6.99598,47.29572],[7.01619,47.31468],[7.00999,47.32453],[7.04564,47.3265],[7.05293,47.33669],[7.06239,47.34411],[7.04994,47.36143],[7.03408,47.36967],[7.01184,47.37269],[6.98934,47.36365],[6.93552,47.35756],[6.90122,47.35885],[6.87965,47.35254],[6.8836,47.37287],[6.8951,47.38171],[6.90954,47.39619],[6.91718,47.40535],[6.93843,47.40608],[6.9403,47.43332],[6.96628,47.43765],[6.97029,47.44711],[7.00218,47.45416],[6.99171,47.4664],[6.9883,47.4731],[6.98286,47.4943],[7.02493,47.50429],[7.03665,47.4992],[7.07207,47.49238],[7.09691,47.49518],[7.13026,47.50295],[7.1674,47.48939],[7.20299,47.4914],[7.19086,47.48851],[7.1775,47.46806],[7.17815,47.45809],[7.16993,47.44375],[7.20574,47.43556],[7.23562,47.43704],[7.25545,47.42453],[7.3024,47.43865],[7.32492,47.43936],[7.38559,47.43186],[7.40043,47.4355],[7.42056,47.44558],[7.43003,47.4595],[7.45635,47.47275],[7.4294,47.48295],[7.42082,47.48037],[7.43499,47.49811],[7.45509,47.48949],[7.47201,47.48039],[7.48763,47.48214],[7.51107,47.49703],[7.49788,47.52125],[7.52346,47.51868],[7.53096,47.52905],[7.49909,47.53543],[7.50418,47.54313],[7.50745,47.54505],[7.51886,47.54634],[7.55184,47.56326],[7.57525,47.57614],[7.58466,47.57552],[7.59309,47.5986],[7.57427,47.61626],[7.56697,47.632],[7.52388,47.66066],[7.51446,47.70278],[7.53557,47.71491],[7.54714,47.7285],[7.53987,47.75468],[7.53309,47.76684],[7.52988,47.78054],[7.54071,47.80288],[7.54574,47.81254],[7.56182,47.83945],[7.56327,47.85211],[7.55562,47.87108],[7.55664,47.87789],[7.5817,47.89803],[7.5806,47.92075],[7.58256,47.92991],[7.60295,47.94876],[7.62139,47.97046],[7.60872,48.00039],[7.57857,48.02504],[7.56879,48.03547],[7.57343,48.05965],[7.57355,48.09108],[7.57957,48.10707],[7.57742,48.12035],[7.59531,48.13202],[7.60007,48.15655],[7.61148,48.16757],[7.63696,48.19557],[7.64164,48.20364],[7.66774,48.22372],[7.6798,48.2542],[7.68106,48.25766],[7.69394,48.30207],[7.74144,48.32294],[7.7436,48.33996],[7.73601,48.36246],[7.73345,48.39837],[7.75334,48.43399],[7.7667,48.46416],[7.7708,48.49195],[7.79197,48.50019],[7.80494,48.51312],[7.80531,48.56131],[7.80026,48.58257],[7.82659,48.61519],[7.83604,48.63337],[7.8443,48.64519],[7.8959,48.66695],[7.92493,48.69044],[7.9626,48.72098],[7.96774,48.7301],[7.96877,48.75346],[7.98333,48.76102],[8.01707,48.7625],[8.02992,48.78698],[8.07002,48.79127],[8.08705,48.80199],[8.10686,48.82844],[8.12153,48.86492],[8.14153,48.8961],[8.16881,48.92451],[8.18726,48.94502],[8.19728,48.95724],[8.22749,48.96498],[8.22347,48.97574],[8.16248,48.97759],[8.1327,48.98117],[8.09132,48.9893],[8.06825,48.99942],[8.0315,49.01882],[7.99621,49.02899],[7.97511,49.02659],[7.96489,49.04297],[7.93152,49.05795],[7.9144,49.04065],[7.88889,49.0492],[7.8675,49.03308],[7.85505,49.03553],[7.85136,49.04231],[7.79437,49.06578],[7.77873,49.05758],[7.76928,49.04759],[7.73231,49.04418],[7.73127,49.05427],[7.69763,49.04979],[7.67473,49.04492],[7.63541,49.05406],[7.62965,49.07365],[7.60108,49.08325],[7.55894,49.08224],[7.52883,49.09706],[7.5235,49.10591],[7.51556,49.12118],[7.48945,49.13649],[7.50595,49.1505],[7.48214,49.16975],[7.45681,49.1645],[7.43618,49.17997],[7.38182,49.17522],[7.36526,49.172],[7.36246,49.1483],[7.36299,49.14523],[7.33002,49.14498],[7.30438,49.12419],[7.2933,49.11506],[7.28407,49.12358],[7.2491,49.12727],[7.20884,49.12438],[7.19833,49.11519],[7.1839,49.12994],[7.15929,49.12041],[7.13144,49.13182],[7.12636,49.14211],[7.10415,49.13851],[7.10611,49.15545],[7.08298,49.15299],[7.09007,49.13228],[7.05818,49.11216],[7.04558,49.12872],[7.04615,49.13843],[7.02773,49.17005],[7.03498,49.19139],[7.01562,49.19113],[6.999,49.19442],[6.97516,49.2094],[6.9537,49.20608],[6.94384,49.21427],[6.91879,49.22262],[6.89465,49.21012],[6.88489,49.21118],[6.85864,49.22265],[6.83623,49.21127],[6.85054,49.19311],[6.86103,49.1788],[6.84427,49.17305],[6.84499,49.16225],[6.84393,49.15575],[6.83417,49.15126],[6.78008,49.16841],[6.77324,49.16724],[6.74829,49.16613],[6.72949,49.16929],[6.71973,49.17649],[6.71131,49.18838],[6.7316,49.20592],[6.7197,49.2213],[6.69567,49.21541],[6.68565,49.24369],[6.66234,49.25727],[6.66783,49.27128],[6.6535,49.28118],[6.63191,49.29578],[6.61474,49.30302],[6.58904,49.32212],[6.57846,49.33484],[6.56806,49.34529],[6.56947,49.35783],[6.59652,49.35934],[6.5876,49.38305],[6.55196,49.39473],[6.5407,49.4011],[6.53717,49.40879],[6.55429,49.41997],[6.53526,49.43418],[6.49973,49.4502],[6.48479,49.45237],[6.46274,49.46505],[6.44052,49.46672],[6.42814,49.47697],[6.40335,49.46596],[6.36885,49.45987],[6.36445,49.45951],[6.34725,49.46588],[6.33403,49.46694],[6.29915,49.48831],[6.28086,49.49407],[6.27986,49.50328],[6.25701,49.5098],[6.23616,49.50815],[6.21723,49.5069],[6.18025,49.50729],[6.15389,49.50163],[6.1447,49.48789],[6.12748,49.48233],[6.0982,49.46427],[6.10077,49.45289],[6.07921,49.46392],[6.05811,49.46644],[6.04177,49.44786],[6.02326,49.45507],[5.99793,49.4565],[5.98189,49.45111],[5.97194,49.46957],[5.97211,49.49141],[5.95566,49.49322],[5.92754,49.49838],[5.89344,49.49681],[5.86626,49.49991],[5.83602,49.52006],[5.84581,49.5299],[5.83708,49.54258],[5.81716,49.53722],[5.81056,49.54348],[5.77445,49.5632],[5.75623,49.55707],[5.75676,49.54257],[5.73859,49.5387],[5.70148,49.53964],[5.66928,49.54826],[5.64287,49.54979],[5.63295,49.5395],[5.61564,49.52721],[5.61753,49.51431],[5.61106,49.50598],[5.60735,49.50722],[5.59129,49.52294],[5.55633,49.52919],[5.53364,49.51332],[5.53132,49.51269],[5.48502,49.50723],[5.47051,49.49732],[5.46593,49.50885],[5.4475,49.51794],[5.46705,49.52589],[5.46534,49.53893],[5.44285,49.5503],[5.44139,49.55228],[5.45703,49.56698],[5.43765,49.56992],[5.43106,49.59246],[5.39425,49.61679],[5.36381,49.62322],[5.34737,49.63131],[5.33694,49.61555],[5.32233,49.61395],[5.315,49.6114],[5.30504,49.63007],[5.3182,49.64636],[5.33269,49.65274],[5.31972,49.66397],[5.28793,49.68177],[5.28225,49.68587],[5.28132,49.68594],[5.26851,49.69657],[5.247,49.68671],[5.19978,49.69237],[5.16648,49.69299],[5.16595,49.7118],[5.14366,49.70913],[5.12305,49.71723],[5.12505,49.72698],[5.09682,49.76017],[5.06308,49.76235],[5.04681,49.77023],[5.01442,49.77994],[5.00174,49.79232],[4.99411,49.80087],[4.94738,49.799],[4.94289,49.7905],[4.93094,49.78702],[4.88784,49.78823],[4.86196,49.78908],[4.86918,49.82285],[4.86717,49.84206],[4.8555,49.8482],[4.85671,49.86474],[4.88945,49.90956],[4.88169,49.92206],[4.85909,49.93149],[4.84707,49.94907],[4.8139,49.95419],[4.79115,49.95804],[4.79544,49.97716],[4.81905,49.99547],[4.82012,50.02615],[4.8411,50.03754],[4.84052,50.04657],[4.81968,50.06063],[4.81966,50.06606],[4.83813,50.06724],[4.84075,50.08304],[4.84933,50.10065],[4.86873,50.0978],[4.87297,50.12589],[4.89517,50.13991],[4.87579,50.15402],[4.83339,50.15362],[4.82381,50.16225],[4.77957,50.14145],[4.76217,50.13641],[4.75615,50.12163],[4.75167,50.1119],[4.71332,50.09694],[4.70211,50.09556],[4.68054,50.06852],[4.69684,50.05913],[4.69115,50.03437],[4.68893,50.01129],[4.69425,49.99624],[4.66318,49.99385],[4.63234,49.98701],[4.5935,49.98572],[4.57633,49.98107],[4.57017,49.97401],[4.54139,49.96947],[4.51155,49.94683],[4.48116,49.94815],[4.44549,49.93718],[4.39907,49.94839],[4.37983,49.95328],[4.34983,49.95254],[4.33431,49.96377],[4.30952,49.96953],[4.29716,49.96466],[4.26807,49.96529],[4.23316,49.95775],[4.19742,49.95458],[4.19673,49.9677],[4.17398,49.97626],[4.14135,49.9791],[4.16314,49.995],[4.13588,50.01488],[4.16063,50.04794],[4.17175,50.04695],[4.22836,50.06644],[4.22706,50.07969],[4.20156,50.09991],[4.19749,50.10924],[4.19684,50.13519],[4.12706,50.13557],[4.15493,50.16718],[4.14805,50.17337],[4.15656,50.19281],[4.15037,50.21361],[4.17284,50.21711],[4.18155,50.23228],[4.19942,50.24046],[4.22125,50.25861],[4.20285,50.27462],[4.1789,50.27518],[4.16262,50.28895],[4.15031,50.27415],[4.16872,50.26654],[4.16358,50.25741],[4.13507,50.25962],[4.12406,50.27284],[4.12273,50.29799],[4.09718,50.31351],[4.07928,50.30965],[4.0789,50.31017],[4.07827,50.32067],[4.05401,50.33933],[4.0375,50.34306],[4.03062,50.35505],[3.99364,50.34875],[3.98649,50.34241],[3.96741,50.34064],[3.96841,50.35006],[3.91918,50.33214],[3.88553,50.32747],[3.85691,50.34779],[3.83811,50.35426],[3.81159,50.34502],[3.7759,50.3532],[3.76319,50.34802],[3.73932,50.34767],[3.73395,50.33221],[3.73187,50.31152],[3.71036,50.30324],[3.70768,50.30517],[3.68482,50.32724],[3.6733,50.33511],[3.66723,50.36092],[3.65719,50.37086],[3.66542,50.37976],[3.67321,50.38798],[3.67368,50.40966],[3.66977,50.43724],[3.6628,50.45602],[3.64342,50.46334],[3.60754,50.49723],[3.58541,50.49053],[3.55957,50.49798],[3.52296,50.49539],[3.50737,50.48931],[3.4963,50.49887],[3.51619,50.51287],[3.51836,50.52466],[3.47442,50.53367],[3.4538,50.51921],[3.4502,50.50757],[3.43954,50.50737],[3.40568,50.49896],[3.37706,50.49109],[3.36193,50.50391],[3.33457,50.508],[3.32891,50.50843],[3.3206,50.51873],[3.28644,50.52787],[3.27595,50.55854],[3.27573,50.58164],[3.27212,50.6051],[3.25879,50.62824],[3.25065,50.63638],[3.24529,50.6512],[3.24204,50.66694],[3.26121,50.679],[3.25373,50.69114],[3.26105,50.70134],[3.24524,50.71305],[3.21281,50.71263],[3.19127,50.72558],[3.19676,50.73719],[3.18423,50.74901],[3.16139,50.77257],[3.14812,50.79015],[3.10459,50.78177],[3.08968,50.77377],[3.05887,50.78076],[3.03555,50.7703],[3.01891,50.77368],[2.98314,50.75738],[2.95651,50.75362],[2.94055,50.74562],[2.93706,50.72999],[2.92292,50.70315],[2.90116,50.69285],[2.88534,50.70648],[2.86972,50.70326],[2.84809,50.72302],[2.81329,50.71707],[2.78939,50.72885],[2.77799,50.75055],[2.75651,50.76268],[2.75449,50.77471],[2.73838,50.7805],[2.72623,50.79239],[2.71811,50.81347],[2.66235,50.81641],[2.6352,50.81292],[2.61669,50.84788],[2.5993,50.85335],[2.60747,50.87262],[2.60511,50.90663],[2.59039,50.91925],[2.60876,50.93091],[2.63025,50.94328],[2.62115,50.96484],[2.59544,50.99204],[2.57403,51.00324],[2.57547,51.00582],[2.57189,51.00838],[2.57236,51.01303],[2.57594,51.01387],[2.55914,51.07002],[2.54536,51.08915],[2.49388,51.07377],[2.47309,51.06834],[2.46665,51.06668],[2.43213,51.05796],[2.38578,51.04981],[2.34029,51.05747],[2.30296,51.05135],[2.26449,51.04466],[2.24037,51.03922],[2.20862,51.0319],[2.19482,51.0404],[2.1707,51.04441],[2.15247,51.03536],[2.14204,51.0224],[2.10272,51.00654],[2.08946,51.00397],[2.05723,51.00563],[2.0429,50.99733],[1.97271,50.9895],[1.94759,50.99004],[1.913,50.9806],[1.88565,50.97281],[1.86431,50.98271],[1.84595,50.9782],[1.82895,50.9626],[1.78899,50.95699],[1.72784,50.93743],[1.70702,50.92559],[1.69274,50.91555],[1.66082,50.88794],[1.63503,50.87595],[1.61381,50.87201],[1.5838,50.87189],[1.57807,50.85349],[1.58918,50.8316],[1.59483,50.81735],[1.60241,50.80428],[1.60661,50.77076],[1.59442,50.75063],[1.5944,50.73515],[1.57892,50.72835],[1.56075,50.69936],[1.56299,50.69205],[1.57144,50.6644],[1.57799,50.64132],[1.57864,50.60668],[1.57798,50.5813],[1.58048,50.56435],[1.6051,50.54082],[1.64434,50.50952],[1.64062,50.50871],[1.63489,50.5117],[1.60949,50.5269],[1.57834,50.52248],[1.57607,50.48792],[1.57445,50.47142],[1.56909,50.43988],[1.55537,50.4007],[1.57351,50.39025],[1.57959,50.3789],[1.61771,50.37238],[1.63353,50.36426],[1.64481,50.35035],[1.62687,50.3602],[1.60246,50.35991],[1.55122,50.35818],[1.54753,50.32897],[1.54218,50.30514],[1.5379,50.28343],[1.54585,50.25698],[1.59478,50.25777],[1.59291,50.24917],[1.6169,50.21936],[1.63428,50.21498],[1.66262,50.21425],[1.68705,50.20013],[1.67694,50.19416],[1.68381,50.18301],[1.65774,50.17528],[1.62708,50.19031],[1.59138,50.18581],[1.57208,50.19496],[1.5571,50.20965],[1.52933,50.2113],[1.50428,50.19662],[1.48709,50.17782],[1.46823,50.13904],[1.4542,50.11009],[1.42104,50.0889],[1.41756,50.08754],[1.38052,50.06572],[1.34249,50.05162],[1.33878,50.04992],[1.27136,50.01125],[1.20086,49.97068],[1.11576,49.94041],[1.08895,49.93709],[1.06424,49.9252],[1.04001,49.92001],[1.02572,49.91654],[0.9727,49.91904],[0.95249,49.91701],[0.92986,49.9067],[0.89886,49.89998],[0.83963,49.88906],[0.80135,49.878],[0.7639,49.87149],[0.75041,49.87092],[0.69086,49.87092],[0.66868,49.86712],[0.65576,49.86541],[0.64528,49.86397],[0.60742,49.85629],[0.56208,49.84538],[0.52413,49.82558],[0.51186,49.81932],[0.48365,49.80801],[0.42864,49.78659],[0.38753,49.77179],[0.36614,49.76663],[0.35559,49.75559],[0.33833,49.74775],[0.31983,49.74142],[0.29945,49.74],[0.29386,49.73948],[0.26991,49.73107],[0.26476,49.72876],[0.22541,49.71775],[0.18239,49.69894],[0.18003,49.69622],[0.16347,49.68558],[0.15967,49.67001],[0.15285,49.6441],[0.1432,49.63022],[0.12873,49.60991],[0.11108,49.58909],[0.07761,49.54003],[0.06675,49.51877],[0.07082,49.50587],[0.0854,49.50192],[0.09201,49.49064],[0.11354,49.47942],[0.12083,49.4639],[0.1949,49.45172],[0.23802,49.45174],[0.2555,49.45454],[0.27048,49.45075],[0.30369,49.45154],[0.33835,49.44543],[0.33758,49.43767],[0.30994,49.43097],[0.29688,49.42991],[0.28593,49.4292],[0.27542,49.42867],[0.22312,49.42828],[0.18458,49.41553],[0.14964,49.40716],[0.13234,49.40379],[0.10544,49.38982],[0.07565,49.36782],[0.08255,49.36373],[0.05804,49.35656],[0.05319,49.35331],[0.03098,49.34144],[0.014,49.33243],[-0.01384,49.3214],[-0.04161,49.31407],[-0.06583,49.30707],[-0.08976,49.29492],[-0.11173,49.28587],[-0.13928,49.28983],[-0.16999,49.28645],[-0.21692,49.28696],[-0.22545,49.26785],[-0.24668,49.26302],[-0.25187,49.26098],[-0.24538,49.2734],[-0.24694,49.29233],[-0.27882,49.29291],[-0.2874,49.29468],[-0.30959,49.30095],[-0.33987,49.31336],[-0.35893,49.32194],[-0.37574,49.32751],[-0.39765,49.33341],[-0.43385,49.33506],[-0.46681,49.33777],[-0.50604,49.34403],[-0.55331,49.34616],[-0.57255,49.34355],[-0.59318,49.34072],[-0.61095,49.3401],[-0.62553,49.34072],[-0.64513,49.34537],[-0.6674,49.3463],[-0.7187,49.34736],[-0.74541,49.34889],[-0.78937,49.35335],[-0.82751,49.35786],[-0.86098,49.3652],[-0.88173,49.37155],[-0.91268,49.38497],[-0.92533,49.39236],[-0.96202,49.39644],[-0.98531,49.39586],[-1.0193,49.39349],[-1.02806,49.3898],[-1.07023,49.3905],[-1.0899,49.38129],[-1.11828,49.36071],[-1.11447,49.34933],[-1.11244,49.32637],[-1.10111,49.32103],[-1.11364,49.32493],[-1.14028,49.3087],[-1.11487,49.32578],[-1.11802,49.34492],[-1.13904,49.3586],[-1.18243,49.36346],[-1.16267,49.38874],[-1.1661,49.40724],[-1.18944,49.42961],[-1.19665,49.43548],[-1.21222,49.44734],[-1.2229,49.45581],[-1.25389,49.4825],[-1.2737,49.50346],[-1.27865,49.50799],[-1.29274,49.51663],[-1.3024,49.53531],[-1.30809,49.54575],[-1.30758,49.5603],[-1.30457,49.5736],[-1.28573,49.58731],[-1.26662,49.59272],[-1.25596,49.61235],[-1.22951,49.60869],[-1.22823,49.62305],[-1.24365,49.64836],[-1.25678,49.66678],[-1.26302,49.67344],[-1.26787,49.69523],[-1.29992,49.69387],[-1.33312,49.70205],[-1.39139,49.70629],[-1.42657,49.70213],[-1.47485,49.68194],[-1.48785,49.6681],[-1.50271,49.66461],[-1.53141,49.6551],[-1.54869,49.65441],[-1.56917,49.65699],[-1.60263,49.64649],[-1.62347,49.64472],[-1.62965,49.65976],[-1.67278,49.65824],[-1.687,49.67379],[-1.70454,49.67087],[-1.71196,49.67815],[-1.75717,49.67807],[-1.7864,49.68573],[-1.82317,49.69021],[-1.83949,49.71126],[-1.86194,49.71508],[-1.88965,49.70661],[-1.90421,49.72091],[-1.94153,49.72576],[-1.94574,49.70154],[-1.93621,49.68802],[-1.94525,49.67946],[-1.92928,49.66962],[-1.89931,49.66636],[-1.86066,49.65015],[-1.84672,49.62425],[-1.84171,49.58298],[-1.84145,49.5721],[-1.8547,49.55654],[-1.85833,49.55129],[-1.88134,49.5433],[-1.88369,49.52148],[-1.8601,49.512],[-1.84523,49.49427],[-1.84514,49.47115],[-1.83574,49.46855],[-1.82242,49.43852],[-1.82166,49.41593],[-1.82314,49.40295],[-1.81009,49.3775],[-1.77579,49.37037],[-1.76081,49.35981],[-1.75254,49.35327],[-1.74557,49.34832],[-1.72465,49.3278],[-1.70989,49.33605],[-1.69246,49.3275],[-1.70697,49.31651],[-1.69243,49.29756],[-1.66026,49.25877],[-1.65062,49.23635],[-1.62976,49.21281],[-1.61282,49.23452],[-1.58525,49.2334],[-1.56733,49.2211],[-1.56773,49.22045],[-1.57469,49.22305],[-1.60984,49.2143],[-1.60515,49.19177],[-1.59579,49.14412],[-1.59183,49.13457],[-1.60734,49.10752],[-1.61035,49.08339],[-1.59891,49.0753],[-1.59807,49.06038],[-1.60107,49.0483],[-1.59393,49.0232],[-1.57788,49.02016],[-1.56008,49.03829],[-1.54225,49.04076],[-1.50799,49.02593],[-1.50558,49.01964],[-1.51398,49.0237],[-1.53345,49.0341],[-1.55437,49.02692],[-1.55134,48.9983],[-1.55537,48.99804],[-1.55774,48.99785],[-1.56165,48.98127],[-1.56177,48.9684],[-1.56264,48.94309],[-1.53929,48.93241],[-1.55075,48.90867],[-1.56,48.90927],[-1.56699,48.90973],[-1.57115,48.89077],[-1.57226,48.88496],[-1.57827,48.86211],[-1.59209,48.84529],[-1.59801,48.8395],[-1.57186,48.81627],[-1.56966,48.78836],[-1.57101,48.76598],[-1.57043,48.74372],[-1.5562,48.73506],[-1.53291,48.7312],[-1.51828,48.7168],[-1.50539,48.69186],[-1.45764,48.6736],[-1.43641,48.66279],[-1.39339,48.67664],[-1.37281,48.69287],[-1.37686,48.68533],[-1.39997,48.66262],[-1.39168,48.65033],[-1.3637,48.646],[-1.35073,48.63192],[-1.35072,48.63161],[-1.3618,48.63433],[-1.36483,48.64476],[-1.40397,48.64372],[-1.42143,48.63951],[-1.44975,48.62301],[-1.47593,48.61914],[-1.5106,48.61933],[-1.51227,48.61753],[-1.51597,48.61824],[-1.51895,48.62713],[-1.54959,48.63013],[-1.57091,48.6263],[-1.63743,48.61477],[-1.66847,48.61057],[-1.76764,48.60241],[-1.76825,48.60237],[-1.79087,48.60616],[-1.84558,48.61639],[-1.85737,48.62472],[-1.87203,48.64736],[-1.86426,48.65729],[-1.8626,48.66778],[-1.83752,48.67934],[-1.84969,48.70206],[-1.89225,48.69595],[-1.90477,48.68988],[-1.9381,48.69428],[-1.9615,48.68077],[-1.98247,48.67264],[-1.99493,48.6606],[-2.02929,48.64696],[-1.99731,48.60357],[-2.00121,48.59366],[-1.96228,48.59293],[-1.95546,48.5761],[-1.98253,48.58655],[-1.981,48.57193],[-1.96294,48.556],[-1.96817,48.53631],[-1.94625,48.54001],[-1.96444,48.5264],[-1.97976,48.49902],[-2.0016,48.49133],[-1.98991,48.4992],[-1.98478,48.52613],[-1.97226,48.5349],[-1.99582,48.55148],[-2.00712,48.56565],[-1.9974,48.58434],[-2.01386,48.58747],[-2.02524,48.60424],[-2.03607,48.60185],[-2.033,48.62044],[-2.05001,48.62437],[-2.05707,48.64024],[-2.08208,48.63619],[-2.12433,48.63526],[-2.14053,48.62562],[-2.12383,48.60454],[-2.15269,48.60974],[-2.16694,48.60313],[-2.1528,48.5856],[-2.17575,48.57643],[-2.18637,48.58154],[-2.20565,48.57559],[-2.21977,48.56034],[-2.21607,48.55532],[-2.22382,48.54737],[-2.21568,48.54121],[-2.22622,48.53806],[-2.22426,48.54698],[-2.21696,48.55505],[-2.22592,48.57012],[-2.21184,48.57544],[-2.2144,48.59325],[-2.26103,48.64449],[-2.28645,48.62678],[-2.32078,48.61349],[-2.33751,48.61956],[-2.32524,48.62774],[-2.29804,48.65117],[-2.29199,48.66812],[-2.32819,48.67288],[-2.35032,48.66126],[-2.38589,48.6529],[-2.40968,48.63694],[-2.41841,48.63225],[-2.42231,48.64782],[-2.43851,48.65264],[-2.46765,48.64999],[-2.4732,48.62246],[-2.49863,48.60731],[-2.53163,48.5974],[-2.55109,48.5962],[-2.57517,48.57583],[-2.63374,48.53058],[-2.62006,48.51818],[-2.63155,48.52593],[-2.68219,48.53224],[-2.67533,48.49099],[-2.68086,48.4902],[-2.71375,48.51959],[-2.73811,48.5272],[-2.71799,48.53969],[-2.71267,48.5543],[-2.77225,48.57021],[-2.77959,48.58515],[-2.80832,48.59204],[-2.82125,48.59436],[-2.81589,48.61585],[-2.82576,48.64377],[-2.85032,48.6672],[-2.85727,48.67457],[-2.88065,48.67437],[-2.88348,48.69042],[-2.92674,48.70881],[-2.94824,48.72724],[-2.93439,48.73772],[-2.93111,48.75344],[-2.95074,48.76337],[-2.9905,48.76274],[-3.017,48.76825],[-3.04486,48.78771],[-3.00531,48.80035],[-3.01714,48.81166],[-3.01354,48.82159],[-3.07373,48.8197],[-3.08566,48.81043],[-3.10125,48.78046],[-3.10277,48.76593],[-3.12154,48.75624],[-3.11608,48.77565],[-3.08838,48.81159],[-3.08301,48.83176],[-3.10001,48.83091],[-3.08362,48.84779],[-3.09447,48.85855],[-3.11187,48.86719],[-3.15841,48.85174],[-3.17368,48.8421],[-3.19876,48.82556],[-3.19686,48.81835],[-3.20276,48.81883],[-3.21927,48.83191],[-3.20937,48.84827],[-3.22008,48.86675],[-3.24383,48.85878],[-3.25378,48.84248],[-3.26954,48.83397],[-3.28225,48.84229],[-3.29651,48.8329],[-3.32232,48.83778],[-3.3352,48.82837],[-3.36592,48.81856],[-3.38315,48.81521],[-3.38866,48.80308],[-3.44052,48.79815],[-3.42657,48.81738],[-3.45471,48.81557],[-3.4746,48.83471],[-3.4903,48.82568],[-3.51304,48.83517],[-3.53423,48.82427],[-3.53498,48.80186],[-3.55447,48.79141],[-3.56665,48.79618],[-3.58516,48.76857],[-3.563,48.75969],[-3.54931,48.74601],[-3.54774,48.73299],[-3.49809,48.73611],[-3.53531,48.72762],[-3.55549,48.72795],[-3.581,48.72186],[-3.57975,48.69756],[-3.57176,48.68751],[-3.57316,48.67507],[-3.5795,48.67108],[-3.61008,48.66978],[-3.616,48.6841],[-3.66156,48.6556],[-3.65379,48.66647],[-3.6557,48.69679],[-3.68516,48.68788],[-3.70215,48.69029],[-3.73715,48.70868],[-3.74818,48.70779],[-3.76585,48.70935],[-3.77991,48.70182],[-3.80377,48.71137],[-3.83062,48.71261],[-3.85042,48.6955],[-3.84609,48.66029],[-3.85652,48.64874],[-3.84394,48.62809],[-3.85947,48.61437],[-3.8492,48.60369],[-3.87344,48.60252],[-3.85827,48.61832],[-3.85833,48.62896],[-3.88062,48.63936],[-3.8984,48.64743],[-3.90808,48.66946],[-3.92312,48.67058],[-3.94229,48.65545],[-3.9516,48.64478],[-3.95772,48.64809],[-3.95215,48.66341],[-3.96933,48.67624],[-3.96661,48.69282],[-3.97367,48.70398],[-3.96414,48.72238],[-4.0071,48.724],[-4.01127,48.71663],[-4.0119,48.71545],[-4.03344,48.71303],[-4.05657,48.70101],[-4.05682,48.68683],[-4.03564,48.68794],[-4.05339,48.68534],[-4.0558,48.66933],[-4.07695,48.68984],[-4.09581,48.68581],[-4.11167,48.69541],[-4.16177,48.68991],[-4.18557,48.68627],[-4.21554,48.66234],[-4.19434,48.652],[-4.24495,48.64966],[-4.27479,48.6495],[-4.2935,48.63631],[-4.3116,48.63516],[-4.31609,48.63772],[-4.29682,48.66477],[-4.33134,48.67713],[-4.34937,48.67662],[-4.39156,48.65806],[-4.43298,48.6478],[-4.39758,48.63645],[-4.43496,48.63549],[-4.46315,48.62724],[-4.50717,48.62235],[-4.5113,48.63285],[-4.55882,48.62331],[-4.56901,48.61096],[-4.52095,48.59356],[-4.51517,48.58754],[-4.52879,48.59232],[-4.56314,48.59853],[-4.59537,48.59327],[-4.59452,48.57465],[-4.58719,48.5627],[-4.54818,48.558],[-4.5389,48.56044],[-4.51398,48.55098],[-4.5083,48.55331],[-4.50293,48.55261],[-4.50399,48.55211],[-4.50602,48.55236],[-4.50716,48.5529],[-4.50818,48.55249],[-4.50851,48.54926],[-4.51154,48.54974],[-4.51471,48.54905],[-4.51987,48.55272],[-4.52679,48.55478],[-4.53616,48.55348],[-4.57519,48.56029],[-4.57957,48.55529],[-4.59486,48.55333],[-4.59694,48.57179],[-4.63313,48.57707],[-4.64626,48.57214],[-4.66377,48.57133],[-4.70102,48.56616],[-4.70462,48.55],[-4.719,48.55878],[-4.75182,48.543],[-4.76374,48.5196],[-4.77801,48.50444],[-4.76671,48.48028],[-4.75075,48.47434],[-4.72514,48.47595],[-4.71675,48.4687],[-4.75017,48.4713],[-4.75981,48.45977],[-4.7762,48.44381],[-4.79537,48.41485],[-4.77585,48.40672],[-4.77575,48.38955],[-4.76087,48.3784],[-4.76949,48.36503],[-4.78574,48.36131],[-4.77001,48.34658],[-4.77136,48.33529],[-4.76189,48.32787],[-4.73665,48.33323],[-4.71661,48.32951],[-4.70083,48.3403],[-4.70121,48.34983],[-4.6789,48.35562],[-4.62206,48.33865],[-4.60785,48.33838],[-4.57223,48.34928],[-4.55444,48.36119],[-4.53794,48.35734],[-4.50706,48.37524],[-4.46269,48.38542],[-4.44443,48.37939],[-4.4339,48.39595],[-4.4227,48.39689],[-4.40263,48.38993],[-4.37635,48.40023],[-4.35902,48.40946],[-4.32831,48.41797],[-4.31457,48.41981],[-4.27754,48.44022],[-4.26956,48.44177],[-4.31405,48.41569],[-4.34811,48.40202],[-4.36096,48.40126],[-4.40751,48.38052],[-4.43687,48.36017],[-4.44806,48.32557],[-4.42196,48.33269],[-4.41638,48.32424],[-4.37466,48.32636],[-4.36685,48.34505],[-4.34393,48.3463],[-4.31902,48.36225],[-4.30236,48.3556],[-4.26904,48.35794],[-4.27793,48.34463],[-4.31802,48.32944],[-4.33076,48.3144],[-4.29325,48.31158],[-4.25545,48.32698],[-4.2752,48.31669],[-4.27186,48.30882],[-4.22099,48.31398],[-4.24082,48.30778],[-4.22882,48.29663],[-4.19324,48.29751],[-4.19598,48.29171],[-4.23118,48.29183],[-4.26049,48.27986],[-4.24,48.25418],[-4.21468,48.26068],[-4.20071,48.24755],[-4.20587,48.23761],[-4.22579,48.25283],[-4.24289,48.24869],[-4.26066,48.2669],[-4.289,48.27333],[-4.28454,48.28836],[-4.30659,48.2976],[-4.3389,48.28345],[-4.36714,48.27787],[-4.38428,48.27508],[-4.409,48.27561],[-4.41825,48.2906],[-4.46455,48.29227],[-4.50321,48.28106],[-4.51454,48.29517],[-4.53521,48.28418],[-4.55324,48.29478],[-4.54539,48.32508],[-4.55536,48.33825],[-4.57965,48.31876],[-4.56736,48.29198],[-4.56704,48.2861],[-4.59443,48.27557],[-4.60703,48.28607],[-4.62351,48.25948],[-4.60373,48.26073],[-4.58231,48.25068],[-4.557,48.25869],[-4.54429,48.2482],[-4.56144,48.23566],[-4.55197,48.20881],[-4.5513,48.18104],[-4.51838,48.19182],[-4.50401,48.22516],[-4.48966,48.23614],[-4.4417,48.23505],[-4.40499,48.22254],[-4.37782,48.21871],[-4.36928,48.2053],[-4.33218,48.20642],[-4.3208,48.20404],[-4.29513,48.18459],[-4.29655,48.16013],[-4.27259,48.15228],[-4.272,48.14723],[-4.27177,48.13329],[-4.28265,48.12668],[-4.28462,48.10786],[-4.29682,48.09195],[-4.30489,48.08916],[-4.379,48.10781],[-4.41304,48.10703],[-4.43282,48.0973],[-4.45732,48.09657],[-4.47719,48.09566],[-4.48652,48.08664],[-4.51112,48.09033],[-4.5398,48.08765],[-4.54607,48.07785],[-4.58323,48.08002],[-4.62131,48.06847],[-4.66775,48.06718],[-4.67824,48.06098],[-4.7137,48.05755],[-4.70602,48.04667],[-4.7113,48.03327],[-4.69001,48.02631],[-4.6555,48.02212],[-4.63302,48.0296],[-4.6268,48.0213],[-4.60302,48.01533],[-4.56573,47.99973],[-4.54073,48.01271],[-4.5354,48.02464],[-4.53706,48.01204],[-4.50935,48.00466],[-4.46226,47.98583],[-4.41964,47.95956],[-4.41113,47.94815],[-4.39906,47.93741],[-4.37333,47.9056],[-4.36377,47.88943],[-4.35228,47.86296],[-4.34771,47.84903],[-4.34992,47.83037],[-4.38006,47.82172],[-4.37368,47.79784],[-4.32373,47.79803],[-4.3015,47.80129],[-4.29039,47.79302],[-4.27258,47.80072],[-4.26783,47.79036],[-4.22637,47.79336],[-4.20825,47.80143],[-4.19558,47.79664],[-4.17623,47.80519],[-4.15908,47.8313],[-4.17987,47.83932],[-4.19426,47.85291],[-4.19908,47.86037],[-4.1848,47.88082],[-4.16634,47.85672],[-4.1513,47.85475],[-4.11297,47.86775],[-4.12147,47.88187],[-4.14139,47.89602],[-4.17082,47.89474],[-4.17593,47.90743],[-4.16748,47.89652],[-4.14571,47.89737],[-4.14861,47.91259],[-4.14107,47.92643],[-4.11106,47.9369],[-4.11164,47.95648],[-4.12085,47.96539],[-4.09755,47.9534],[-4.10855,47.94286],[-4.06915,47.93293],[-4.0797,47.9353],[-4.10333,47.93994],[-4.11656,47.93026],[-4.13063,47.92966],[-4.14462,47.90947],[-4.14145,47.90056],[-4.11627,47.89681],[-4.10573,47.88085],[-4.09074,47.86104],[-4.06749,47.87083],[-4.06814,47.86384],[-4.0396,47.84485],[-4.0262,47.85031],[-3.97968,47.85436],[-3.99005,47.883],[-3.99021,47.89708],[-3.95217,47.89458],[-3.94602,47.90511],[-3.94698,47.88704],[-3.92979,47.87127],[-3.90659,47.86361],[-3.89613,47.84936],[-3.8937,47.83334],[-3.86543,47.80942],[-3.83914,47.7974],[-3.81112,47.79415],[-3.76212,47.79024],[-3.73791,47.8005],[-3.75532,47.84396],[-3.74829,47.84783],[-3.74188,47.81232],[-3.72455,47.80512],[-3.69949,47.82008],[-3.67314,47.82551],[-3.65121,47.82168],[-3.67174,47.82437],[-3.71806,47.80701],[-3.72245,47.79937],[-3.67704,47.77603],[-3.64666,47.77894],[-3.61611,47.77001],[-3.57296,47.76991],[-3.55421,47.76368],[-3.53307,47.76703],[-3.53088,47.78891],[-3.52337,47.79719],[-3.52965,47.76576],[-3.50198,47.73802],[-3.49957,47.73093],[-3.45021,47.69522],[-3.42558,47.70485],[-3.41189,47.7022],[-3.38736,47.7016],[-3.36789,47.71593],[-3.36797,47.72517],[-3.35015,47.74415],[-3.36413,47.76146],[-3.33317,47.74312],[-3.30311,47.76531],[-3.29542,47.79377],[-3.28293,47.78014],[-3.3151,47.74495],[-3.32177,47.73534],[-3.34793,47.7345],[-3.34296,47.71588],[-3.3412,47.70889],[-3.30243,47.70233],[-3.28368,47.70418],[-3.28179,47.68566],[-3.30131,47.69056],[-3.30294,47.69017],[-3.27128,47.67885],[-3.21375,47.64475],[-3.21024,47.65114],[-3.21495,47.67195],[-3.20618,47.67169],[-3.19605,47.68833],[-3.17725,47.69414],[-3.15182,47.69286],[-3.16819,47.68057],[-3.18374,47.68233],[-3.20895,47.66703],[-3.18751,47.66088],[-3.20426,47.64914],[-3.20916,47.63931],[-3.19741,47.62391],[-3.15993,47.60666],[-3.13958,47.57716],[-3.13838,47.5597],[-3.13493,47.54509],[-3.15425,47.52324],[-3.15135,47.50406],[-3.14361,47.48422],[-3.13072,47.47355],[-3.09372,47.47358],[-3.11963,47.503],[-3.11767,47.50975],[-3.13339,47.53196],[-3.12698,47.5613],[-3.13053,47.58872],[-3.10336,47.58386],[-3.1063,47.5738],[-3.08962,47.56475],[-3.05241,47.5776],[-3.02355,47.57332],[-3.02307,47.59187],[-3.0073,47.56836],[-2.99249,47.57192],[-2.98931,47.58374],[-2.95802,47.55908],[-2.93647,47.56254],[-2.94752,47.57918],[-2.96512,47.5888],[-2.95421,47.59729],[-2.97196,47.60677],[-2.95661,47.61798],[-2.98115,47.65569],[-2.97339,47.65506],[-2.95545,47.63905],[-2.959,47.62935],[-2.93494,47.62523],[-2.94934,47.62133],[-2.94211,47.59843],[-2.92685,47.60116],[-2.91057,47.59215],[-2.89004,47.58321],[-2.88843,47.60341],[-2.86397,47.59674],[-2.86961,47.61952],[-2.86032,47.62298],[-2.82539,47.61582],[-2.80122,47.618],[-2.77813,47.62651],[-2.76237,47.63363],[-2.74502,47.63218],[-2.74092,47.6188],[-2.77827,47.61887],[-2.73987,47.60387],[-2.71749,47.59852],[-2.71931,47.58899],[-2.71362,47.57983],[-2.73024,47.55061],[-2.75233,47.53788],[-2.77908,47.5392],[-2.80532,47.54765],[-2.84913,47.53988],[-2.86155,47.54005],[-2.85825,47.55084],[-2.87906,47.55703],[-2.89487,47.55467],[-2.91219,47.54208],[-2.86937,47.53045],[-2.84702,47.51187],[-2.85129,47.50046],[-2.81532,47.48671],[-2.80465,47.48869],[-2.7805,47.49568],[-2.71521,47.50584],[-2.68147,47.49545],[-2.66315,47.5195],[-2.63376,47.51115],[-2.61982,47.50488],[-2.60442,47.51602],[-2.57044,47.51637],[-2.55442,47.51186],[-2.54427,47.52268],[-2.51778,47.52711],[-2.50006,47.51788],[-2.46693,47.51211],[-2.44179,47.49917],[-2.41528,47.49636],[-2.39012,47.50663],[-2.38389,47.49879],[-2.42353,47.4858],[-2.44718,47.49456],[-2.467,47.4873],[-2.4818,47.4957],[-2.4994,47.48535],[-2.48801,47.4712],[-2.50057,47.45871],[-2.47945,47.44184],[-2.45877,47.44806],[-2.44848,47.44118],[-2.45736,47.42659],[-2.43387,47.41306],[-2.46837,47.41741],[-2.49817,47.40392],[-2.53451,47.3831],[-2.55882,47.3745],[-2.52741,47.36315],[-2.50778,47.34273],[-2.5044,47.31542],[-2.5113,47.30056],[-2.47311,47.29929],[-2.46684,47.2929],[-2.50249,47.28486],[-2.52513,47.30207],[-2.53967,47.2892],[-2.50399,47.28071],[-2.45001,47.26369],[-2.41703,47.26191],[-2.4277,47.27677],[-2.41686,47.28522],[-2.4126,47.28467],[-2.3576,47.27278],[-2.34224,47.25686],[-2.30345,47.23712],[-2.27489,47.23946],[-2.24628,47.25613],[-2.22324,47.2584],[-2.22091,47.26718],[-2.1806,47.27578],[-2.17026,47.26771],[-2.17128,47.23989],[-2.18166,47.23313],[-2.15816,47.19731],[-2.17226,47.16148],[-2.2256,47.15223],[-2.22892,47.14486],[-2.24212,47.13597],[-2.22036,47.12541],[-2.17745,47.12204],[-2.15853,47.11412],[-2.11087,47.11006],[-2.05318,47.09466],[-2.04006,47.07751],[-2.02072,47.06898],[-2.00457,47.0613],[-1.98377,47.02966],[-1.97559,47.02884],[-2.02902,47.00777],[-2.04613,46.97783],[-2.04462,46.96797],[-2.07096,46.93509],[-2.08472,46.93323],[-2.11891,46.90716],[-2.11448,46.89984],[-2.12708,46.89281],[-2.1568,46.88704],[-2.14667,46.85763],[-2.1419,46.81892],[-2.12658,46.80856],[-2.05853,46.77512],[-1.98286,46.72065],[-1.97833,46.70352],[-1.96006,46.69434],[-1.9472,46.69805],[-1.92248,46.67163],[-1.89738,46.64012],[-1.87566,46.62794],[-1.85413,46.60437],[-1.84716,46.58511],[-1.82908,46.54557],[-1.81285,46.49416],[-1.79033,46.4962],[-1.77091,46.4895],[-1.75492,46.47417],[-1.71411,46.45847],[-1.7113,46.45183],[-1.65551,46.43258],[-1.64237,46.43205],[-1.65338,46.42185],[-1.58841,46.40869],[-1.56392,46.40669],[-1.54335,46.40887],[-1.50478,46.39959],[-1.48199,46.37143],[-1.4712,46.34601],[-1.43792,46.3401],[-1.4249,46.34724],[-1.38649,46.34098],[-1.369,46.34932],[-1.35526,46.34622],[-1.33351,46.33467],[-1.31161,46.30439],[-1.30215,46.31656],[-1.33615,46.34704],[-1.3248,46.34052],[-1.28323,46.31124],[-1.23043,46.27762],[-1.20817,46.28355],[-1.19585,46.3007],[-1.20216,46.31628],[-1.16735,46.31987],[-1.16425,46.33299],[-1.14844,46.31679],[-1.13111,46.31137],[-1.11477,46.32919],[-1.10533,46.31479],[-1.12597,46.30805],[-1.12367,46.29412],[-1.10709,46.26213],[-1.13908,46.25393],[-1.14632,46.24108],[-1.17109,46.2238],[-1.19915,46.2128],[-1.20185,46.20187],[-1.19885,46.20467],[-1.19475,46.20571],[-1.20105,46.19093],[-1.23078,46.16578],[-1.22107,46.14754],[-1.20492,46.14625],[-1.16325,46.15571],[-1.16657,46.13845],[-1.14917,46.13314],[-1.12686,46.12543],[-1.12398,46.11359],[-1.10335,46.09501],[-1.09409,46.06274],[-1.08304,46.05289],[-1.0626,46.0485],[-1.06121,46.02637],[-1.05296,46.00379],[-1.06075,45.99407],[-1.08079,45.99673],[-1.08624,45.98146],[-1.0771,45.9541],[-1.09682,45.949],[-1.07742,45.9373],[-1.07466,45.92655],[-1.08118,45.89889],[-1.09865,45.87889],[-1.10438,45.86585],[-1.12531,45.85679],[-1.15577,45.8614],[-1.15686,45.84231],[-1.14004,45.82253],[-1.13916,45.79892],[-1.15542,45.80247],[-1.18575,45.79034],[-1.21194,45.79416],[-1.24059,45.78348],[-1.23845,45.70979],[-1.2347,45.69364],[-1.21453,45.69715],[-1.14717,45.66757],[-1.11659,45.64822],[-1.07782,45.63889],[-1.05417,45.62741],[-1.0357,45.61817],[-1.02517,45.6233],[-1.01032,45.61196],[-1.01309,45.60053],[-0.99525,45.59831],[-0.99288,45.57767],[-1.02628,45.57516],[-1.06141,45.57251],[-1.09048,45.56639],[-1.09851,45.54543],[-1.11666,45.52518],[-1.13131,45.51368],[-1.15169,45.48363],[-1.15483,45.4675],[-1.15055,45.44026],[-1.16032,45.40566],[-1.15989,45.39036],[-1.15845,45.35778],[-1.16333,45.28514],[-1.1688,45.24996],[-1.18665,45.1285],[-1.1942,45.06826],[-1.20287,44.99499],[-1.21416,44.92078],[-1.23273,44.80898],[-1.25199,44.7097],[-1.26096,44.63912],[-1.25195,44.62205],[-1.23885,44.6583],[-1.23706,44.6823],[-1.22916,44.7005],[-1.17305,44.74561],[-1.17989,44.7579],[-1.16104,44.7755],[-1.12993,44.75191],[-1.12281,44.75151],[-1.09628,44.73722],[-1.07837,44.72262],[-1.03695,44.69403],[-1.039,44.68498],[-1.01802,44.66821],[-1.00053,44.64322],[-1.00848,44.65052],[-1.04416,44.64791],[-1.07999,44.6408],[-1.11545,44.64547],[-1.11878,44.63951],[-1.11814,44.64743],[-1.13912,44.65369],[-1.15614,44.66259],[-1.19415,44.65927],[-1.20453,44.63867],[-1.20464,44.61494],[-1.22434,44.57843],[-1.24261,44.55841],[-1.25771,44.52531],[-1.25014,44.49921],[-1.25367,44.46749],[-1.26335,44.40396],[-1.27566,44.33582],[-1.28121,44.30763],[-1.2879,44.27101],[-1.30498,44.1805],[-1.31697,44.12889],[-1.32737,44.09031],[-1.31008,44.08607],[-1.32594,44.08913],[-1.35133,44.00141],[-1.38415,43.88439],[-1.39962,43.83632],[-1.41219,43.79805],[-1.41027,43.78316],[-1.42808,43.7416],[-1.44138,43.68364],[-1.4463,43.65842],[-1.44533,43.64699],[-1.46654,43.61019],[-1.48264,43.58643],[-1.49369,43.57048],[-1.52116,43.52882],[-1.54865,43.49308],[-1.56637,43.48011],[-1.57706,43.46271],[-1.59679,43.43609],[-1.6085,43.42704],[-1.61986,43.42035],[-1.64581,43.40483],[-1.65741,43.40416],[-1.66997,43.38803],[-1.68909,43.39465],[-1.73316,43.38013],[-1.79201,43.37282],[-1.78923,43.35462],[-1.76202,43.34409],[-1.76093,43.34413],[-1.75209,43.33277],[-1.73747,43.3303],[-1.73788,43.31391],[-1.73003,43.29582],[-1.70347,43.30916],[-1.66842,43.31484],[-1.63541,43.30902],[-1.62226,43.29956],[-1.63068,43.28502],[-1.62174,43.26363],[-1.60878,43.2519],[-1.57515,43.24992],[-1.55707,43.27949],[-1.56502,43.28801],[-1.52904,43.29344],[-1.50596,43.29352],[-1.4916,43.28106],[-1.44603,43.26905],[-1.42712,43.26708],[-1.4132,43.27348],[-1.38254,43.2531],[-1.37828,43.23511],[-1.38441,43.22143],[-1.38309,43.19968],[-1.40226,43.1775],[-1.40755,43.15548],[-1.41477,43.12753],[-1.42661,43.12159],[-1.44076,43.10763],[-1.46337,43.09801],[-1.47321,43.08673],[-1.45607,43.06324],[-1.44125,43.04627],[-1.36554,43.03073],[-1.35389,43.0283],[-1.34296,43.05437],[-1.34611,43.09047],[-1.33237,43.10784],[-1.32112,43.11273],[-1.26998,43.11827],[-1.29978,43.0921],[-1.30918,43.06888],[-1.27092,43.05506],[-1.2636,43.04402],[-1.2476,43.04264],[-1.22975,43.05551],[-1.21258,43.05145],[-1.18097,43.03262],[-1.17396,43.03763],[-1.14443,43.024],[-1.13406,43.00829],[-1.11496,43.02396],[-1.08352,43.01133],[-1.08637,43.00284],[-1.05903,42.996],[-1.01671,42.99497],[-0.99706,42.97544],[-0.97494,42.96339],[-0.94519,42.95344],[-0.89708,42.95617],[-0.86386,42.95079],[-0.83727,42.95434],[-0.8105,42.9513],[-0.78382,42.96447],[-0.75178,42.96748],[-0.74058,42.94884],[-0.73074,42.93868],[-0.72548,42.92306],[-0.73362,42.91084],[-0.73174,42.89603],[-0.69875,42.87902],[-0.6787,42.88455],[-0.66271,42.87074],[-0.64874,42.85518],[-0.63615,42.85331],[-0.61971,42.83799],[-0.60321,42.83243],[-0.59835,42.80492],[-0.56917,42.80694],[-0.56763,42.78081],[-0.55358,42.77932],[-0.54359,42.79322],[-0.52965,42.79166],[-0.52609,42.80973],[-0.50123,42.82781],[-0.47819,42.80947],[-0.45314,42.80414],[-0.44397,42.7961],[-0.41093,42.80876],[-0.39064,42.80028],[-0.36447,42.81657],[-0.34826,42.83509],[-0.32363,42.83502],[-0.31325,42.8494],[-0.30826,42.84251],[-0.27689,42.8356],[-0.25483,42.81926],[-0.24339,42.82337],[-0.23873,42.8178],[-0.2389,42.80867],[-0.21203,42.79616],[-0.19897,42.79586],[-0.17938,42.78538],[-0.15442,42.79299],[-0.14732,42.77401],[-0.11719,42.74245],[-0.10647,42.72099],[-0.06836,42.71797],[-0.06189,42.69497],[-0.01655,42.68519],[0.00485,42.68707],[0.02428,42.70253],[0.05809,42.69768],[0.07644,42.71405],[0.09017,42.71712],[0.10698,42.71037],[0.13157,42.71464],[0.13673,42.72245],[0.16207,42.7269],[0.1793,42.73658],[0.20624,42.72936],[0.22489,42.71792],[0.26019,42.71598],[0.27078,42.69114],[0.29553,42.6733],[0.3157,42.6845],[0.32532,42.7052],[0.34536,42.71057],[0.36021,42.72418],[0.37532,42.71419],[0.39279,42.71325],[0.40131,42.69649],[0.42217,42.69049],[0.46717,42.69459],[0.47776,42.69998],[0.49468,42.69245],[0.51585,42.69129],[0.52644,42.70255],[0.52964,42.70264],[0.58935,42.69494],[0.59405,42.70413],[0.59694,42.70542],[0.60564,42.69924],[0.66901,42.68919],[0.68267,42.7089],[0.67369,42.71704],[0.65944,42.75223],[0.63928,42.75487],[0.6644,42.77144],[0.64482,42.78298],[0.65249,42.78756],[0.66,42.79835],[0.66498,42.81524],[0.65917,42.83534],[0.67856,42.84768],[0.67802,42.85525],[0.70839,42.86144],[0.73595,42.84898],[0.77709,42.83622],[0.80151,42.8406],[0.83315,42.82836],[0.85807,42.82572],[0.93333,42.78966],[0.95998,42.80593],[0.98291,42.78691],[1.00557,42.79083],[1.03864,42.787],[1.04379,42.7811],[1.07344,42.78258],[1.07868,42.78832],[1.08739,42.77838],[1.10838,42.77194],[1.12895,42.75461],[1.13311,42.72854],[1.16604,42.70894],[1.22934,42.7278],[1.25029,42.72006],[1.30919,42.71767],[1.33525,42.72405],[1.35738,42.7197],[1.35093,42.70304],[1.37721,42.69453],[1.38988,42.68515],[1.39002,42.66815],[1.4137,42.65558],[1.42042,42.62495],[1.43801,42.60285],[1.45699,42.60233],[1.47749,42.61452],[1.46989,42.63556],[1.4787,42.65142],[1.4939,42.65325],[1.49965,42.64567],[1.52217,42.64932],[1.55279,42.65393],[1.57475,42.64793],[1.58062,42.63676],[1.60051,42.62565],[1.63939,42.62814],[1.65692,42.62101],[1.68344,42.62499],[1.71365,42.61462],[1.73617,42.61516],[1.73757,42.6116],[1.72611,42.58964],[1.75298,42.58243],[1.78118,42.58253],[1.78614,42.57367],[1.76965,42.56477],[1.74815,42.56312],[1.73446,42.54901],[1.73467,42.53392],[1.72496,42.5158],[1.73041,42.49239],[1.74839,42.49509],[1.76191,42.48758],[1.79195,42.48551],[1.8043,42.49039],[1.84306,42.47691],[1.85952,42.46247],[1.88083,42.46],[1.90025,42.44985],[1.9163,42.44624],[1.93393,42.45431],[1.9429,42.44449],[1.9446,42.42807],[1.95857,42.42414],[1.95548,42.4103],[1.97152,42.37398],[1.98641,42.36193],[2.01606,42.34709],[2.02335,42.35561],[2.05885,42.35773],[2.08948,42.37377],[2.1162,42.38316],[2.11483,42.39449],[2.13281,42.41442],[2.15698,42.4234],[2.2065,42.41742],[2.215,42.42302],[2.24648,42.42897],[2.25701,42.43867],[2.29091,42.42302],[2.3186,42.4251],[2.34398,42.41689],[2.34913,42.40688],[2.41409,42.39131],[2.4326,42.39352],[2.4328,42.37802],[2.46629,42.36057],[2.47603,42.34779],[2.52623,42.33346],[2.54171,42.33356],[2.56192,42.35723],[2.58744,42.35705],[2.6102,42.34681],[2.6547,42.34141],[2.67551,42.34241],[2.67606,42.35431],[2.66088,42.36602],[2.65903,42.37995],[2.67138,42.38779],[2.67403,42.40481],[2.69339,42.40668],[2.72416,42.42274],[2.72736,42.42279],[2.75322,42.4264],[2.77047,42.41163],[2.80066,42.41841],[2.80583,42.43167],[2.8275,42.4393],[2.84412,42.4581],[2.86161,42.45501],[2.87048,42.46743],[2.88676,42.45994],[2.91827,42.45614],[2.93279,42.4744],[2.94712,42.48214],[2.96729,42.46552],[3.00002,42.47325],[3.01326,42.46656],[3.04044,42.47422],[3.04725,42.45704],[3.08715,42.42543],[3.10268,42.42661],[3.12088,42.43818],[3.12566,42.43485],[3.1737,42.43576],[3.15694,42.46023],[3.15476,42.47775],[3.13078,42.48165],[3.13274,42.49507],[3.12441,42.50443],[3.13427,42.51692],[3.09906,42.52365],[3.07619,42.53365],[3.0574,42.53665],[3.04944,42.55045],[3.04418,42.59367],[3.04329,42.59964],[3.0355,42.64069],[3.03417,42.66307],[3.04048,42.72307],[3.03513,42.72175],[3.03853,42.74338],[3.03913,42.7795],[3.04351,42.83813],[3.05126,42.88597],[3.06061,42.91749],[3.03846,42.93722],[3.04339,42.96024],[3.04956,42.98084],[3.06665,43.02371],[3.08486,43.0576],[3.12304,43.10954],[3.15169,43.13841],[3.18118,43.17124],[3.24001,43.21282],[3.27123,43.23406],[3.31263,43.25421],[3.34507,43.26923],[3.36493,43.27726],[3.39365,43.28627],[3.42906,43.28988],[3.46838,43.27541],[3.48583,43.27381],[3.50986,43.2835],[3.52084,43.28101],[3.53939,43.30237],[3.56617,43.32625],[3.60266,43.35593],[3.64724,43.3864],[3.66517,43.39329],[3.6917,43.39213],[3.72512,43.41322],[3.73044,43.41857],[3.77996,43.4333],[3.79624,43.44067],[3.82604,43.46662],[3.82988,43.47022],[3.8304,43.47076],[3.8698,43.49774],[3.90744,43.51713],[3.96931,43.54023],[4.00897,43.55246],[4.03745,43.55639],[4.10128,43.55469],[4.13119,43.54022],[4.14079,43.51802],[4.11095,43.50907],[4.1206,43.49232],[4.1346,43.48376],[4.17066,43.47141],[4.23022,43.4605],[4.34111,43.4563],[4.42136,43.44851],[4.45319,43.45811],[4.52046,43.45456],[4.56202,43.44297],[4.58244,43.42925],[4.5912,43.40673],[4.57491,43.39411],[4.55221,43.38689],[4.55869,43.37523],[4.58501,43.36157],[4.60919,43.35505],[4.6801,43.34595],[4.72093,43.35134],[4.76347,43.34994],[4.79209,43.34593],[4.82444,43.33542],[4.84156,43.33374],[4.85983,43.33411],[4.87663,43.35954],[4.84703,43.37861],[4.84117,43.40377],[4.84511,43.402],[4.85331,43.39847],[4.87595,43.41276],[4.90651,43.42045],[4.93263,43.43319],[4.97219,43.42192],[4.97708,43.40506],[5.00463,43.40443],[5.03943,43.40271],[5.05717,43.4087],[5.06113,43.4194],[5.05434,43.44303],[5.05191,43.46366],[5.03997,43.4704],[5.00631,43.4698],[4.99928,43.50831],[5.01508,43.52976],[5.01422,43.55549],[5.02271,43.55663],[5.04573,43.52374],[5.05876,43.52798],[5.10756,43.52585],[5.11803,43.51326],[5.11297,43.5072],[5.13249,43.47197],[5.15141,43.45557],[5.16472,43.47188],[5.20275,43.49116],[5.22347,43.47914],[5.22998,43.46509],[5.22037,43.44905],[5.19232,43.43595],[5.17173,43.41861],[5.13946,43.40109],[5.11782,43.40422],[5.0968,43.40073],[5.06749,43.3993],[5.05701,43.40428],[5.00123,43.39849],[4.98631,43.39268],[5.02501,43.35402],[5.01884,43.34329],[5.03655,43.3298],[5.05422,43.32463],[5.08836,43.33301],[5.13531,43.32921],[5.16875,43.32819],[5.18485,43.33257],[5.21998,43.32838],[5.23712,43.33182],[5.25846,43.33754],[5.28225,43.35372],[5.30491,43.36104],[5.31763,43.359],[5.35114,43.33478],[5.36466,43.31207],[5.35314,43.27896],[5.36943,43.26786],[5.37391,43.24725],[5.34993,43.23199],[5.33974,43.21432],[5.36393,43.20729],[5.40221,43.21403],[5.42239,43.20502],[5.45873,43.21147],[5.50993,43.19771],[5.53705,43.21475],[5.54832,43.20871],[5.55598,43.18847],[5.57251,43.17293],[5.60465,43.1603],[5.61566,43.16955],[5.61783,43.18414],[5.65105,43.18856],[5.67197,43.17955],[5.69501,43.17134],[5.68409,43.15975],[5.69523,43.14359],[5.72101,43.14475],[5.72605,43.13675],[5.74731,43.13445],[5.76999,43.1392],[5.77964,43.13358],[5.77673,43.11701],[5.80723,43.11579],[5.81364,43.10588],[5.80382,43.0767],[5.82879,43.04953],[5.84755,43.04964],[5.88692,43.0774],[5.90308,43.07354],[5.91104,43.06612],[5.93658,43.07178],[5.93809,43.08456],[5.91746,43.08585],[5.90375,43.07924],[5.90952,43.1007],[5.88296,43.10268],[5.88536,43.1175],[5.88743,43.11624],[5.91364,43.1206],[5.93445,43.11869],[5.93646,43.10699],[5.97869,43.10687],[5.99303,43.10511],[6.00615,43.10411],[6.0248,43.09212],[6.03325,43.07789],[6.08607,43.08739],[6.10958,43.08403],[6.12592,43.07809],[6.13292,43.05624],[6.12663,43.04134],[6.13541,43.03313],[6.15284,43.03572],[6.14934,43.05581],[6.15485,43.0783],[6.17029,43.09971],[6.20725,43.11644],[6.23409,43.11338],[6.2715,43.12116],[6.29098,43.10739],[6.31478,43.10729],[6.32901,43.09324],[6.35937,43.08933],[6.36381,43.1253],[6.36958,43.1375],[6.40305,43.14941],[6.42014,43.14689],[6.44832,43.1529],[6.46616,43.1574],[6.49066,43.1529],[6.50951,43.15635],[6.53663,43.17892],[6.55238,43.18737],[6.56231,43.18916],[6.60201,43.1822],[6.61776,43.16259],[6.63504,43.17271],[6.64672,43.16774],[6.64184,43.18571],[6.66086,43.1964],[6.68114,43.19975],[6.66394,43.21281],[6.66393,43.2401],[6.67652,43.24486],[6.69062,43.25212],[6.69524,43.26688],[6.67853,43.27881],[6.66296,43.26484],[6.64598,43.27385],[6.62375,43.26537],[6.59362,43.26242],[6.57435,43.2672],[6.586,43.2802],[6.6206,43.29615],[6.66575,43.31847],[6.66946,43.33349],[6.68233,43.34147],[6.71633,43.34761],[6.71506,43.36827],[6.73025,43.38738],[6.7315,43.40253],[6.74265,43.41559],[6.76345,43.42445],[6.78836,43.40846],[6.82931,43.41853],[6.85559,43.41181],[6.85751,43.42558],[6.89017,43.42827],[6.90122,43.44329],[6.91997,43.44894],[6.9253,43.47348],[6.93345,43.48031],[6.94506,43.48388],[6.9538,43.50622],[6.93703,43.51722],[6.95177,43.53465],[6.97089,43.54534],[6.98936,43.54885],[7.03212,43.54642],[7.05756,43.55083],[7.06823,43.56258],[7.08701,43.57004],[7.105,43.57006],[7.12147,43.55981],[7.1177,43.54923],[7.13632,43.54494],[7.14411,43.55314],[7.13777,43.56698],[7.12507,43.57383],[7.13004,43.6179],[7.14432,43.64311],[7.15687,43.65342],[7.17832,43.65601],[7.19887,43.66366],[7.21273,43.64782],[7.23074,43.66582],[7.23056,43.67854],[7.25816,43.69367],[7.30849,43.69291],[7.32472,43.70064],[7.32957,43.70196],[7.34272,43.71383],[7.34846,43.7144],[7.35929,43.7225],[7.383,43.72285],[7.40967,43.72145],[7.41248,43.7316],[7.41266,43.73493],[7.43687,43.75191],[7.46199,43.76053],[7.47869,43.74986],[7.4881,43.76532],[7.53016,43.78781],[7.51897,43.80241],[7.50808,43.8415],[7.49655,43.85112],[7.50121,43.87498],[7.53739,43.89304],[7.55955,43.8974],[7.57384,43.93579],[7.5719,43.94718],[7.59871,43.95745],[7.61193,43.95592],[7.63219,43.96477],[7.67052,43.99841],[7.6632,44.0149],[7.66208,44.02763],[7.70313,44.04341],[7.71423,44.06562],[7.71643,44.08194],[7.69006,44.10821],[7.67457,44.11797],[7.6669,44.13341],[7.67665,44.14211],[7.67053,44.15332],[7.68447,44.17395],[7.63608,44.17711],[7.62857,44.16405],[7.61986,44.14951],[7.57646,44.15373],[7.55408,44.14669],[7.53088,44.14668],[7.51562,44.13803],[7.50392,44.14347],[7.4601,44.12578],[7.4309,44.13055],[7.42718,44.11305],[7.38678,44.12421],[7.3577,44.1162],[7.34483,44.14505],[7.31005,44.14772],[7.28049,44.14089],[7.26237,44.14816],[7.24865,44.15849],[7.24177,44.17316],[7.22078,44.16827],[7.1936,44.18719],[7.16318,44.20822],[7.14307,44.20019],[7.11364,44.21786],[7.09123,44.22117],[7.07025,44.23296],[7.0389,44.22373],[7.01929,44.23237],[7.00845,44.23521],[6.99653,44.25194],[6.99403,44.28058],[6.97156,44.29333],[6.96012,44.29394],[6.96019,44.31146],[6.92754,44.33234],[6.922,44.35163],[6.88743,44.36129],[6.89681,44.37459],[6.89249,44.41985],[6.94653,44.42708],[6.9321,44.44218],[6.91121,44.45231],[6.90636,44.46764],[6.87583,44.48234],[6.86123,44.50324],[6.85547,44.53199],[6.86845,44.53631],[6.87592,44.5508],[6.91585,44.55918],[6.91254,44.56884],[6.93288,44.57307],[6.93269,44.59277],[6.96227,44.6264],[6.94842,44.6548],[6.95937,44.66282],[6.96272,44.67795],[6.99605,44.69041],[7.02909,44.69175],[7.05958,44.68006],[7.07711,44.68104],[7.06575,44.71346],[7.0403,44.71979],[7.02939,44.73006],[7.02122,44.7515],[7.01899,44.77657],[6.99958,44.78972],[7.01947,44.81271],[7.00661,44.8398],[6.96605,44.84927],[6.93091,44.86309],[6.91323,44.84515],[6.88337,44.8481],[6.86317,44.85068],[6.83007,44.86801],[6.80458,44.87714],[6.80161,44.89108],[6.78467,44.88934],[6.77143,44.90345],[6.75235,44.90561],[6.74845,44.92176],[6.76491,44.95961],[6.76318,44.97172],[6.7379,44.98934],[6.75112,44.99595],[6.74274,45.01661],[6.72265,45.02213],[6.6733,45.01963],[6.65877,45.05232],[6.66209,45.07166],[6.63321,45.09418],[6.62992,45.10937],[6.67251,45.12441],[6.68042,45.1403],[6.71144,45.14486],[6.74048,45.13681],[6.76802,45.15979],[6.79679,45.15306],[6.84647,45.13559],[6.89268,45.13672],[6.88518,45.15449],[6.89372,45.16858],[6.91023,45.16534],[6.95449,45.17972],[6.96573,45.1952],[6.96588,45.20821],[7.00702,45.21676],[7.02746,45.21572],[7.05109,45.22557],[7.06661,45.21042],[7.07655,45.21059],[7.1103,45.24664],[7.12518,45.244],[7.13756,45.25683],[7.13052,45.2708],[7.13629,45.28079],[7.12205,45.29496],[7.10997,45.32679],[7.13458,45.33131],[7.13875,45.35133],[7.16402,45.36073],[7.15776,45.36917],[7.1747,45.38613],[7.18513,45.40677],[7.16583,45.41225],[7.15207,45.42318],[7.1131,45.43429],[7.10011,45.45465],[7.1052,45.46829],[7.04593,45.47952],[7.06165,45.48933],[7.04474,45.49739],[7.02195,45.49644],[6.99986,45.50487],[7.00525,45.51725],[6.99126,45.5304],[6.99607,45.54446],[6.98982,45.55656],[6.99536,45.57575],[6.98064,45.58342],[6.97965,45.59712],[6.98872,45.62658],[7.00228,45.63667],[6.9744,45.64682],[6.97031,45.65409],[6.93063,45.64582],[6.9147,45.65186],[6.90219,45.66384],[6.90034,45.68093],[6.87657,45.67863],[6.84623,45.69054],[6.80859,45.72512],[6.81699,45.74006],[6.80559,45.7477],[6.80235,45.77858],[6.81297,45.79571],[6.80816,45.81345],[6.81806,45.8322],[6.84051,45.84072],[6.8538,45.83708],[6.86147,45.83248],[6.87014,45.82803],[6.88186,45.84981],[6.91438,45.84104],[6.94231,45.84782],[6.95141,45.86011],[6.99732,45.87238],[7.00676,45.88718],[7.0027,45.8968],[7.02176,45.9167],[7.04374,45.92316],[7.03573,45.93831],[7.03613,45.95568],[7.01538,45.96249],[7.02148,45.97637],[7.01066,45.99717],[6.9855,46.00416],[6.98132,46.01957],[6.96289,46.03044],[6.95014,46.05159],[6.92459,46.06524],[6.90861,46.05017],[6.89127,46.04269],[6.87173,46.05115],[6.8918,46.08497],[6.88254,46.09522],[6.89299,46.10476],[6.89809,46.12227],[6.84436,46.12835],[6.81512,46.12927],[6.79654,46.13868],[6.79049,46.15452],[6.80681,46.17804],[6.80707,46.19596],[6.8033,46.20329],[6.8398,46.24822],[6.85198,46.25214],[6.86437,46.2831],[6.85118,46.29051],[6.8281,46.30251],[6.82535,46.31196],[6.78634,46.33209],[6.77515,46.34715],[6.77144,46.36102],[6.80097,46.37534],[6.78993,46.39306],[6.75753,46.40267],[6.71213,46.40764],[6.63828,46.40543],[6.61912,46.4038],[6.61407,46.40324],[6.568,46.39834],[6.54083,46.39556],[6.51317,46.40491],[6.48276,46.3918],[6.4773,46.37519],[6.44309,46.36402],[6.41311,46.35979],[6.40437,46.35133],[6.39902,46.34977],[6.39028,46.34043],[6.36258,46.34796],[6.34888,46.36751],[6.31551,46.36883],[6.29141,46.35927],[6.26937,46.3367],[6.24954,46.30704],[6.25231,46.29169],[6.23837,46.28165],[6.24985,46.2622],[6.26679,46.24769],[6.29486,46.26459],[6.30853,46.25519],[6.31028,46.24398],[6.29464,46.22513],[6.27635,46.21534],[6.24784,46.20522],[6.23008,46.2035],[6.2139,46.19385],[6.1867,46.17767],[6.18878,46.16639],[6.17544,46.15841],[6.14726,46.14668],[6.13644,46.14159],[6.12656,46.14052],[6.09849,46.14382],[6.09181,46.15195],[6.05226,46.15134],[6.0469,46.14176],[6.03717,46.13806],[5.99379,46.14445],[5.97973,46.1359],[5.95738,46.12855],[5.9559,46.13236],[5.97305,46.15604],[5.98799,46.17075],[5.99222,46.18655],[5.964,46.19691]],[[1.9807,42.49504],[1.99842,42.48532],[1.9863,42.47546],[2.00287,42.45832],[2.00943,42.4485],[1.98094,42.44775],[1.9599,42.45328],[1.96024,42.47042],[1.9807,42.49504]]],[[[-1.47442,46.20297],[-1.45827,46.20126],[-1.41246,46.18445],[-1.36353,46.16225],[-1.32435,46.14587],[-1.28394,46.14551],[-1.26713,46.156],[-1.28452,46.17321],[-1.29401,46.18786],[-1.31849,46.1868],[-1.34233,46.20022],[-1.35477,46.206],[-1.40049,46.20326],[-1.42913,46.20548],[-1.44092,46.21419],[-1.4193,46.21898],[-1.41579,46.23052],[-1.45801,46.22851],[-1.47537,46.20993],[-1.47713,46.20742],[-1.50015,46.21661],[-1.51589,46.23062],[-1.51482,46.23508],[-1.50846,46.2267],[-1.47428,46.23269],[-1.48214,46.24734],[-1.50043,46.25799],[-1.52348,46.25124],[-1.56098,46.23719],[-1.54347,46.21985],[-1.53469,46.20237],[-1.50511,46.19336],[-1.47442,46.20297]]],[[[-1.21932,45.90498],[-1.23267,45.92616],[-1.22883,45.94043],[-1.2444,45.9643],[-1.23457,45.97008],[-1.2374,45.98638],[-1.24861,45.99036],[-1.28808,45.98738],[-1.31031,45.99192],[-1.32367,46.00196],[-1.35661,46.02358],[-1.39145,46.04228],[-1.41067,46.04096],[-1.38727,45.9968],[-1.39516,45.977],[-1.38805,45.95724],[-1.37581,45.94571],[-1.34108,45.91897],[-1.30066,45.89996],[-1.26868,45.88135],[-1.25885,45.86853],[-1.25019,45.84597],[-1.24107,45.81172],[-1.23283,45.8034],[-1.19632,45.82852],[-1.20799,45.85068],[-1.19628,45.8631],[-1.18842,45.8864],[-1.20199,45.90064],[-1.21932,45.90498]]],[[[-5.1412,48.44929],[-5.09907,48.45661],[-5.09247,48.44999],[-5.05869,48.45022],[-5.04779,48.46223],[-5.06608,48.48198],[-5.08122,48.47351],[-5.10733,48.47198],[-5.13253,48.45923],[-5.1412,48.44929]]],[[[8.79808,41.90473],[8.8036,41.89375],[8.78572,41.87743],[8.78789,41.86853],[8.78965,41.8532],[8.76393,41.84403],[8.77217,41.83556],[8.772,41.812],[8.72125,41.79799],[8.72804,41.77383],[8.70793,41.7573],[8.68402,41.74692],[8.7232,41.72442],[8.77269,41.74164],[8.78425,41.73515],[8.77149,41.7136],[8.78388,41.70893],[8.82565,41.70963],[8.84994,41.69622],[8.88176,41.69497],[8.8865,41.68946],[8.91426,41.69057],[8.91649,41.68188],[8.88106,41.67015],[8.86932,41.64551],[8.85287,41.6476],[8.81609,41.62953],[8.79464,41.6317],[8.79169,41.6076],[8.78203,41.58771],[8.7922,41.58675],[8.80934,41.55707],[8.82282,41.54484],[8.83317,41.54747],[8.85501,41.5367],[8.84094,41.52193],[8.85487,41.51808],[8.87705,41.52424],[8.89967,41.50878],[8.9186,41.50332],[8.94048,41.49025],[8.9606,41.49264],[8.98269,41.47763],[8.99542,41.48564],[8.99705,41.47987],[9.0384,41.45858],[9.05259,41.46026],[9.08119,41.4815],[9.06633,41.45598],[9.07914,41.44165],[9.09539,41.44955],[9.11993,41.44071],[9.10448,41.42593],[9.09143,41.40182],[9.10122,41.39374],[9.12124,41.39633],[9.14844,41.38627],[9.16928,41.38458],[9.18483,41.36588],[9.22018,41.36738],[9.26517,41.42828],[9.22543,41.4171],[9.22376,41.44272],[9.24373,41.44686],[9.28728,41.48385],[9.27673,41.50593],[9.28322,41.5147],[9.27277,41.5303],[9.29152,41.53267],[9.29951,41.54329],[9.32591,41.55832],[9.34169,41.55887],[9.34888,41.57386],[9.36767,41.59501],[9.33991,41.59426],[9.31815,41.60475],[9.29594,41.58379],[9.28725,41.59306],[9.28756,41.60893],[9.30519,41.61525],[9.31385,41.62892],[9.31983,41.61968],[9.34587,41.61767],[9.3511,41.63975],[9.3647,41.63612],[9.38651,41.66029],[9.37239,41.67825],[9.39928,41.69229],[9.40136,41.71792],[9.40693,41.7427],[9.40493,41.77116],[9.39665,41.77371],[9.39434,41.79769],[9.40654,41.82331],[9.40153,41.85955],[9.39732,41.87167],[9.40867,41.90679],[9.41592,41.92839],[9.4128,41.93807],[9.41279,41.95179],[9.43981,41.98775],[9.44192,41.9898],[9.45674,42.00169],[9.49731,42.04848],[9.53084,42.08707],[9.5491,42.10398],[9.55583,42.14239],[9.55429,42.15669],[9.55888,42.19551],[9.55299,42.22005],[9.55323,42.24145],[9.55533,42.25284],[9.55963,42.28417],[9.55346,42.29923],[9.54337,42.32841],[9.54149,42.33724],[9.53497,42.3592],[9.53269,42.37791],[9.53535,42.39396],[9.53818,42.41165],[9.5434,42.42786],[9.5414,42.43847],[9.53617,42.47036],[9.53142,42.48385],[9.52991,42.49552],[9.53436,42.52325],[9.52743,42.56488],[9.51015,42.58986],[9.48567,42.61325],[9.46299,42.63924],[9.44964,42.66227],[9.44652,42.68662],[9.45463,42.70841],[9.45633,42.71763],[9.46134,42.7402],[9.46806,42.75268],[9.46908,42.76647],[9.49115,42.79756],[9.48709,42.82688],[9.48011,42.86036],[9.47744,42.88192],[9.47451,42.9002],[9.46889,42.9366],[9.45532,42.95676],[9.45401,42.97347],[9.46346,42.9866],[9.41816,43.01099],[9.40487,43.00451],[9.38339,43.01015],[9.35874,43.00694],[9.34377,42.99762],[9.34991,42.9608],[9.35943,42.94501],[9.35001,42.92892],[9.35952,42.92331],[9.3265,42.9012],[9.32735,42.87766],[9.34034,42.86593],[9.30961,42.83354],[9.32624,42.81222],[9.33829,42.80439],[9.34306,42.79589],[9.33978,42.76065],[9.34398,42.73974],[9.32958,42.71898],[9.32157,42.71376],[9.32157,42.69629],[9.2945,42.67453],[9.27694,42.69238],[9.25949,42.70006],[9.253,42.71765],[9.23349,42.71988],[9.22209,42.73533],[9.19983,42.72477],[9.16281,42.73661],[9.13494,42.72854],[9.12353,42.73124],[9.10038,42.71566],[9.0618,42.69376],[9.05403,42.68235],[9.05681,42.65974],[9.02822,42.6526],[9.01773,42.64247],[9.00028,42.64158],[8.97986,42.63946],[8.94837,42.63356],[8.92426,42.63807],[8.90329,42.62709],[8.88024,42.62918],[8.87556,42.61516],[8.86743,42.60826],[8.84794,42.60936],[8.83131,42.60122],[8.80665,42.60401],[8.81101,42.58966],[8.80121,42.58394],[8.7966,42.565],[8.78757,42.55792],[8.76654,42.55615],[8.7559,42.57141],[8.72733,42.56146],[8.71671,42.55068],[8.71745,42.52908],[8.68769,42.51796],[8.66666,42.51565],[8.6663,42.49583],[8.64942,42.47467],[8.67506,42.47651],[8.67941,42.46731],[8.66796,42.45797],[8.66866,42.44494],[8.65457,42.41503],[8.62982,42.42081],[8.609,42.41699],[8.60813,42.39376],[8.59441,42.38178],[8.57326,42.38157],[8.55748,42.37085],[8.55149,42.34705],[8.55557,42.33563],[8.57738,42.3411],[8.59006,42.35264],[8.61791,42.34636],[8.62452,42.32937],[8.6018,42.32169],[8.6053,42.30691],[8.6257,42.31265],[8.63942,42.30219],[8.66051,42.30251],[8.68716,42.28199],[8.69064,42.27495],[8.689,42.26325],[8.61481,42.25172],[8.55651,42.23577],[8.57405,42.22768],[8.57009,42.20761],[8.5815,42.20623],[8.58233,42.18323],[8.56911,42.16881],[8.57652,42.15515],[8.61221,42.13463],[8.62413,42.12253],[8.65118,42.11688],[8.66401,42.10602],[8.70154,42.1112],[8.71733,42.07756],[8.72295,42.06339],[8.74405,42.05947],[8.74375,42.05712],[8.74178,42.04101],[8.7003,42.02568],[8.68522,42.02662],[8.65734,42.00963],[8.6568,42.00393],[8.66935,41.99016],[8.66863,41.98199],[8.64622,41.96805],[8.62278,41.97059],[8.59323,41.96523],[8.60683,41.94223],[8.62354,41.93454],[8.61009,41.91236],[8.61679,41.90072],[8.64174,41.91008],[8.67055,41.90513],[8.68807,41.9093],[8.71775,41.90787],[8.74016,41.91839],[8.74088,41.9317],[8.76485,41.92325],[8.78339,41.92258],[8.79808,41.90473]]],[[[-3.15823,47.29258],[-3.11947,47.29055],[-3.09525,47.2831],[-3.07674,47.28794],[-3.06413,47.30785],[-3.06828,47.31709],[-3.09233,47.3153],[-3.12193,47.32299],[-3.13844,47.32891],[-3.1535,47.34702],[-3.15573,47.36172],[-3.1949,47.36537],[-3.21849,47.37902],[-3.2376,47.3796],[-3.26203,47.37097],[-3.26198,47.35083],[-3.2488,47.33075],[-3.23597,47.32433],[-3.24831,47.31355],[-3.222,47.29362],[-3.18261,47.29541],[-3.15823,47.29258]]],[[[-3.51484,47.64756],[-3.4858,47.62866],[-3.46283,47.62038],[-3.41669,47.63442],[-3.4375,47.64467],[-3.49668,47.65383],[-3.51484,47.64756]]],[[[-2.99499,47.39414],[-2.95423,47.38227],[-2.94913,47.38889],[-2.98474,47.39894],[-2.99499,47.39414]]],[[[6.1602,43.00186],[6.20725,42.98281],[6.21544,42.99136],[6.25078,42.99961],[6.24885,43.01638],[6.21776,43.00955],[6.19906,43.00062],[6.18439,43.00876],[6.1602,43.00186]]],[[[6.36991,42.99974],[6.40285,42.99455],[6.41773,43.00721],[6.40633,43.0179],[6.37687,43.00747],[6.36991,42.99974]]],[[[6.43403,43.0147],[6.47162,43.01743],[6.48922,43.04226],[6.46935,43.04478],[6.4583,43.0281],[6.44037,43.02503],[6.43403,43.0147]]],[[[-2.18733,46.96114],[-2.23259,46.97522],[-2.23727,46.98079],[-2.23411,46.99258],[-2.24733,46.99375],[-2.24085,46.99564],[-2.21879,46.99099],[-2.21977,47.01121],[-2.24647,47.02046],[-2.25114,47.02753],[-2.2773,47.02913],[-2.29701,47.02414],[-2.29254,47.00902],[-2.30183,46.98957],[-2.28698,46.98357],[-2.26723,46.96397],[-2.22052,46.96457],[-2.19779,46.95118],[-2.17411,46.92592],[-2.16748,46.9064],[-2.1532,46.90705],[-2.14724,46.9341],[-2.15686,46.95013],[-2.18733,46.96114]]],[[[-2.37731,46.70224],[-2.36558,46.69521],[-2.32911,46.68665],[-2.31532,46.69504],[-2.28589,46.6956],[-2.31789,46.71967],[-2.3773,46.7324],[-2.40068,46.72587],[-2.3989,46.71703],[-2.37731,46.70224]]]]},"properties":null}
]}